ORBCOMM FM115           
1 41186U 15081H   25307.88143345  .00001018  00000+0  23165-3 0  9997
2 41186  46.9978  95.0372 0001030 302.5171  57.5617 14.62797151528227
ORBCOMM FM108           
1 41187U 15081J   25307.32302938  .00000838  00000+0  21535-3 0  9990
2 41187  47.0036 169.7693 0002673 238.9881 121.0742 14.58456377527103
ORBCOMM FM117           
1 41188U 15081K   25307.90586362  .00000811  00000+0  20952-3 0  9993
2 41188  46.9999 165.7319 0003243 249.4587 110.5951 14.58458246527231
ORBCOMM FM116           
1 41189U 15081L   25307.54538173  .00001096  00000+0  26980-3 0  9994
2 41189  47.0024 257.2220 0001164  57.7715 302.3284 14.58532986525999
